1 45583U 20025BE  23081.75296058  .00021047  00000-0  14270-2 0  9990
2 45583  53.0519 258.1117 0001082  72.9855 287.1252 15.06416009161683
1 45583U 20025BE  23082.74816954  .00007042  00000-0  49115-3 0  9999
2 45583  53.0522 253.6430 0001168  84.7641 275.3481 15.06399663161830
1 45583U 20025BE  23083.47796991  .00031984  00000-0  21534-2 0  9994
2 45583  53.0517 250.3676 0000959  74.3532 285.7563 15.06451593161940
1 45583U 20025BE  23083.74334287  .00039977  00000-0  26815-2 0  9997
2 45583  53.0521 249.1758 0001070  80.1662 279.9448 15.06483462162584
1 45583U 20025BE  23083.74334287  .00039977  00000-0  26815-2 0  9997
2 45583  53.0521 249.1758 0001070  80.1662 279.9448 15.06483462161987
1 45583U 20025BE  23084.14142599 -.00011580  00000-0 -75933-3 0  9993
2 45583  53.0526 247.3898 0002034  91.2812 268.8410 15.06419538162045
1 45583U 20025BE  23084.47316675 -.00021700  00000-0 -14441-2 0  9998
2 45583  53.0521 245.8987 0000977 123.9676 236.1406 15.06355974162098
1 45583U 20025BE  23084.73856800  .00024640  00000-0  16696-2 0  9994
2 45583  53.0523 244.7076 0001129 125.6708 234.4386 15.06348322162730
1 45583U 20025BE  23084.73856800  .00024640  00000-0  16696-2 0  9994
2 45583  53.0523 244.7076 0001129 125.6708 234.4386 15.06348322162134
1 45583U 20025BE  23085.73378637  .00028325  00000-0  19128-2 0  9999
2 45583  53.0520 240.2401 0000982 118.7970 241.3118 15.06400998162884
1 45583U 20025BE  23086.13187062  .00011813  00000-0  81070-3 0  9994
2 45583  53.0526 238.4559 0000988 103.2793 256.8306 15.06394465162343
1 45583U 20025BE  23086.46360847  .00001783  00000-0  13857-3 0  9997
2 45583  53.0537 236.9661 0001173 100.5201 259.5920 15.06387714162399
1 45583U 20025BE  23086.59630371  .00007021  00000-0  48991-3 0  9991
2 45583  53.0542 236.3696 0001362 108.0022 252.1115 15.06388046163015
1 45583U 20025BE  23086.72899664  .00007182  00000-0  50067-3 0  9993
2 45583  53.0539 235.7740 0001256 103.7449 256.3680 15.06392924163036
1 45583U 20025BE  23087.39244925  .00020289  00000-0  13756-2 0  9997
2 45583  53.0528 232.7939 0001030  97.7043 262.4063 15.06438332162534
1 45583U 20025BE  23087.59148162  .00029005  00000-0  19549-2 0  9996
2 45583  53.0530 231.9014 0001206  86.6994 273.4133 15.06460877163168
1 45583U 20025BE  23087.65782504  .00028664  00000-0  19319-2 0  9992
2 45583  53.0529 231.6041 0001226  83.5405 276.5724 15.06467829163173
1 45583U 20025BE  23087.65782504  .00028664  00000-0  19319-2 0  9992
2 45583  53.0529 231.6041 0001226  83.5405 276.5724 15.06467829162576
1 45583U 20025BE  23088.38763896  .00003009  00000-0  22067-3 0  9997
2 45583  53.0521 228.3268 0002565  69.4074 290.7190 15.06422964163289
1 45583U 20025BE  23088.38763896  .00003009  00000-0  22067-3 0  9997
2 45583  53.0521 228.3268 0002565  69.4074 290.7190 15.06422964162682
1 45583U 20025BE  23088.65303036  .00034741  00000-0  23404-2 0  9995
2 45583  53.0520 227.1353 0001433  44.5416 315.5688 15.06389521162724
1 45583U 20025BE  23088.85207026  .00033972  00000-0  22884-2 0  9995
2 45583  53.0512 226.2403 0001202  61.9074 298.2036 15.06402858163351
1 45583U 20025BE  23089.38283182  .00044843  00000-0  30056-2 0  9990
2 45583  53.0513 223.8588 0001419  43.2953 316.8147 15.06458028162830
1 45583U 20025BE  23089.84723246  .00054040  00000-0  36084-2 0  9998
2 45583  53.0510 221.7725 0001449  41.6773 318.4326 15.06510075163505
1 45583U 20025BE  23090.37803638 -.00018860  00000-0 -12527-2 0  9990
2 45583  53.0513 219.3895 0001006  92.9770 267.1334 15.06339726162986
1 45583U 20025BE  23091.04153824  .00050741  00000-0  34036-2 0  9991
2 45583  53.0529 216.4097 0000982  80.2592 279.8508 15.06371093163087
1 45583U 20025BE  23091.50596447  .00051639  00000-0  34577-2 0  9991
2 45583  53.0521 214.3267 0001085  68.0798 292.0306 15.06428602163758
1 45583U 20025BE  23091.57230980  .00053824  00000-0  36014-2 0  9991
2 45583  53.0522 214.0286 0001083  69.7241 290.3864 15.06435452163768
1 45583U 20025BE  23091.57230980  .00053824  00000-0  36014-2 0  9991
2 45583  53.0522 214.0286 0001083  69.7241 290.3864 15.06435452163162
1 45583U 20025BE  23092.03673244  .00050549  00000-0  33852-2 0  9995
2 45583  53.0525 211.9467 0001063  82.5127 277.5983 15.06433365163234
1 45583U 20025BE  23092.36847863  .00007453  00000-0  51921-3 0  9995
2 45583  53.0539 210.4569 0001787 105.8863 254.2323 15.06365110163282
1 45583U 20025BE  23092.56752306  .00045700  00000-0  30690-2 0  9990
2 45583  53.0524 209.5620 0001265  92.4473 267.6661 15.06377000163916
1 45583U 20025BE  23092.70021890  .00057087  00000-0  38218-2 0  9998
2 45583  53.0519 208.9658 0001255  93.6489 266.4643 15.06387334163933
1 45583U 20025BE  23092.70021890  .00057087  00000-0  38218-2 0  9998
2 45583  53.0519 208.9658 0001255  93.6489 266.4643 15.06387334163337
1 45583U 20025BE  23093.03195247  .00042093  00000-0  28271-2 0  9992
2 45583  53.0515 207.4775 0001281  88.9661 271.1475 15.06411152163382
1 45583U 20025BE  23093.49636826  .00042917  00000-0  28784-2 0  9999
2 45583  53.0518 205.3919 0001306  87.8254 272.2885 15.06454365164051
1 45583U 20025BE  23094.02713680  .00035897  00000-0  24134-2 0  9997
2 45583  53.0517 203.0115 0001760  33.2999 326.8100 15.06448099163533
1 45583U 20025BE  23094.49157585  .00036651  00000-0  24682-2 0  9991
2 45583  53.0520 200.9242 0001554  50.3036 309.8090 15.06376490163609
1 45583U 20025BE  23095.42043349  .00029185  00000-0  19688-2 0  9991
2 45583  53.0528 196.7558 0001839  49.3837 310.7311 15.06423589163746
1 45583U 20025BE  23095.48677923  .00028338  00000-0  19123-2 0  9991
2 45583  53.0529 196.4583 0001861  48.0885 312.0263 15.06426499164358
1 45583U 20025BE  23096.41564252  .00016636  00000-0  11339-2 0  9994
2 45583  53.0529 192.2883 0001517  56.6559 303.4575 15.06373907163899
1 45583U 20025BE  23096.48199084  .00022238  00000-0  15083-2 0  9993
2 45583  53.0533 191.9910 0001501  61.7980 298.3161 15.06370340164509
1 45583U 20025BE  23096.94642082  .00025709  00000-0  17385-2 0  9998
2 45583  53.0532 189.9044 0001530  66.0036 294.1113 15.06400438163978
1 45583U 20025BE  23097.47718357  .00040276  00000-0  27036-2 0  9996
2 45583  53.0531 187.5216 0001529  62.8209 297.2936 15.06451626164058
1 45583U 20025BE  23098.47240041  .00019420  00000-0  13201-2 0  9993
2 45583  53.0517 183.0539 0001399  58.8817 301.2309 15.06369382164200
1 45583U 20025BE  23098.53874819  .00019011  00000-0  12927-2 0  9996
2 45583  53.0520 182.7552 0001332  68.4601 291.6530 15.06371550164815
1 45583U 20025BE  23099.46760907  .00023077  00000-0  15626-2 0  9997
2 45583  53.0507 178.5858 0001412  75.2318 284.8827 15.06411383164959
1 45583U 20025BE  23099.53395491  .00021668  00000-0  14685-2 0  9995
2 45583  53.0508 178.2890 0001367  77.0857 283.0285 15.06414004164963
1 45583U 20025BE  23099.53395491  .00021668  00000-0  14685-2 0  9995
2 45583  53.0508 178.2890 0001367  77.0857 283.0285 15.06414004164367
1 45583U 20025BE  23100.19742411  .00011518  00000-0  79082-3 0  9994
2 45583  53.0517 175.3100 0001536  92.5562 267.5603 15.06403879165069
1 45583U 20025BE  23100.19742411  .00011518  00000-0  79082-3 0  9994
2 45583  53.0517 175.3100 0001536  92.5562 267.5603 15.06403879164462
1 45583U 20025BE  23101.45798241  .00025720  00000-0  17361-2 0  9997
2 45583  53.0521 169.6494 0001457  90.0977 270.0179 15.06467957165256
1 45583U 20025BE  23102.45318602  .00020156  00000-0  13690-2 0  9996
2 45583  53.0520 165.1823 0001437 103.0158 257.0991 15.06377702164801
1 45583U 20025BE  23102.58588186  .00024094  00000-0  16317-2 0  9990
2 45583  53.0522 164.5867 0001497 101.9582 258.1575 15.06381071165421
1 45583U 20025BE  23103.38204087  .00023263  00000-0  15746-2 0  9996
2 45583  53.0519 161.0122 0001473 102.1979 257.9175 15.06420781165548
1 45583U 20025BE  23103.84647086  .00015149  00000-0  10335-2 0  9990
2 45583  53.0519 158.9279 0002003  82.6155 277.5062 15.06407768165019
1 45583U 20025BE  23104.50994721  .00023247  00000-0  15752-2 0  9991
2 45583  53.0518 155.9491 0001164  83.4559 276.6562 15.06381862165117
1 45583U 20025BE  23105.43879631  .00023861  00000-0  16141-2 0  9991
2 45583  53.0517 151.7790 0001218  82.9316 277.1811 15.06429338165852
1 45583U 20025BE  23105.63783178  .00021041  00000-0  14258-2 0  9998
2 45583  53.0522 150.8861 0001299  84.5601 275.5536 15.06438127165280
1 45583U 20025BE  23105.83687304 -.00011260  00000-0 -73846-3 0  9997
2 45583  53.0511 149.9962 0000490 203.4970 156.5996 15.06391293165912
1 45583U 20025BE  23105.83687304 -.00011260  00000-0 -73846-3 0  9997
2 45583  53.0511 149.9962 0000490 203.4970 156.5996 15.06391293165316
1 45583U 20025BE  23106.43400566  .00023840  00000-0  16144-2 0  9999
2 45583  53.0516 147.3113 0001212  99.1119 261.0007 15.06390394165405
1 45583U 20025BE  23106.83208699  .00023906  00000-0  16181-2 0  9990
2 45583  53.0514 145.5238 0001246  99.4742 260.6388 15.06406121166069
1 45583U 20025BE  23107.56189033  .00022605  00000-0  15301-2 0  9999
2 45583  53.0515 142.2471 0001271  97.7807 262.3327 15.06436590166171
1 45583U 20025BE  23107.82728699  .00006088  00000-0  42726-3 0  9994
2 45583  53.0521 141.0577 0001962  71.7918 288.3284 15.06396547165619
1 45583U 20025BE  23108.35806370  .00002864  00000-0  21111-3 0  9999
2 45583  53.0520 138.6722 0001364  97.5474 262.5670 15.06391981166296
1 45583U 20025BE  23108.55710809  .00003419  00000-0  24843-3 0  9994
2 45583  53.0523 137.7780 0001402  94.4008 265.7141 15.06384665166328
1 45583U 20025BE  23109.22057779  .00015452  00000-0  10538-2 0  9994
2 45583  53.0515 134.8004 0001325  90.8255 269.2886 15.06405592165826
1 45583U 20025BE  23109.55230865  .00013763  00000-0  94070-3 0  9996
2 45583  53.0519 133.3105 0001350  89.9195 270.1949 15.06414648166471
1 45583U 20025BE  23109.75134639 -.00005625  00000-0 -35909-3 0  9996
2 45583  53.0520 132.4222 0001495 207.5574 152.5336 15.06396331166507
1 45583U 20025BE  23110.54751859  .00007428  00000-0  51708-3 0  9990
2 45583  53.0508 128.8429 0001338  94.4124 265.7018 15.06398398166623
